JUGNU                   
1 37839U 11058B   26123.63347041  .00000462  00000+0  10160-3 0  9999
2 37839  19.9600 219.1062 0018501 304.9418 188.1216 14.13763515752717
SRMSAT                  
1 37841U 11058D   26123.89204050  .00000422  00000+0  85075-4 0  9996
2 37841  19.9734 327.5811 0011781  76.8420 314.3522 14.11565536751550
SUOMI NPP               
1 37849U 11061A   26123.93416793  .00000087  00000+0  62111-4 0  9995
2 37849  98.7934  65.1186 0002845  89.8918 270.2584 14.19507697752160
YAOGAN-12               
1 37875U 11066B   26123.94706593  .00004909  00000+0  19314-3 0  9993
2 37875  97.1176 164.6041 0010750  32.9091 327.2815 15.26025346805298
BEIDOU-2 M4             
1 38251U 12018B   26122.47950053 -.00000073  00000+0  00000+0 0  9996
2 38251  55.6982 305.6327 0010923 282.1441  77.7205  1.86229692 95095
ARIRANG-3 (KOMPSAT-3)   
1 38338U 12025B   26123.96277317  .00000454  00000+0  99435-4 0  9997
2 38338  98.1149  82.1959 0004031 249.2608 110.8161 14.62167033744884
HORYU-2                 
1 38340U 12025D   26123.87730118  .00003087  00000+0  31980-3 0  9998
2 38340  98.2115 255.0264 0007349 334.5602  25.5252 14.90801613742126
CSSWE                   
1 38761U 12048D   26123.71150578  .00036463  00000+0  79765-3 0  9996
2 38761  64.6632 243.8990 0055796 187.6087 172.4210 15.42288965109533
CP5                     
1 38763U 12048F   26123.86629306  .00016726  00000+0  57471-3 0  9994
2 38763  64.6453 298.9407 0087662 189.9865 169.9526 15.26599962109991
METOP-B                 
1 38771U 12049A   26123.91331105  .00000107  00000+0  68726-4 0  9999
2 38771  98.6538 176.2882 0003549 109.5256 250.6305 14.21435538706976
SJ-9A                   
1 38860U 12056A   26123.90755441  .00001354  00000+0  16244-3 0  9990
2 38860  97.6684  97.4730 0026739  45.7063 314.6339 14.85375769693012
COSMOS 2484 (RODNIK-S 6)
1 39059U 13001C   26123.95502546 -.00000084  00000+0 -67529-3 0  9996
2 39059  82.5013 249.3901 0027418 129.5717 230.7791 12.42937448603067
SARAL                   
1 39086U 13009A   26123.90775014  .00000089  00000+0  48643-4 0  9991
2 39086  98.5562 311.0348 0002886  69.4460 290.7033 14.32845144689267
AAUSAT 3                
1 39087U 13009B   26123.42970271  .00000677  00000+0  22890-3 0  9999
2 39087  98.3700 308.2443 0011145 353.2390   6.8647 14.39883479690739
STRAND-1                
1 39090U 13009E   26123.42805204  .00000294  00000+0  11340-3 0  9999
2 39090  98.3913 304.7663 0008803  13.1955 346.9460 14.37136555690634
BRITE-AUSTRIA           
1 39091U 13009F   26123.42174325  .00000193  00000+0  80241-4 0  9998
2 39091  98.3985 303.9678 0010538  20.6402 339.5209 14.36524026690620
UNIBRITE                
1 39092U 13009G   26123.42999131  .00000177  00000+0  75183-4 0  9990
2 39092  98.4023 304.0758 0009377  17.9752 342.1764 14.36395082690569
AIST-2 (RS43)           
1 39133U 13015D   26123.95605020  .00005939  00000+0  23786-3 0  9994
2 39133  64.8708  41.9074 0020964 246.0036 113.8900 15.25821888717152
GAOFEN-1                
1 39150U 13018A   26123.94648639  .00000278  00000+0  47089-4 0  9992
2 39150  97.9110 196.9088 0018199  51.7359 308.5485 14.76525426701717
NEE-01 PEGASO           
1 39151U 13018B   26123.91432217  .00002527  00000+0  24604-3 0  9999
2 39151  98.1160 266.6239 0011638 313.5909  46.4342 14.93443083704091
TURKSAT-3USAT           
1 39152U 13018C   26123.74373672  .00004035  00000+0  36318-3 0  9991
2 39152  97.7921 214.7680 0010518 244.5616 115.4517 14.96151737704445
CUBEBUG-1 (CAPITAN BETO)
1 39153U 13018D   26123.92379869  .00004318  00000+0  38010-3 0  9991
2 39153  98.1628 281.9144 0009983 297.8716  62.1493 14.97030614704444
PROBA-V                 
1 39159U 13021A   26123.90988557  .00000062  00000+0  45325-4 0  9999
2 39159  98.3565 104.7089 0002950 260.7842  99.3004 14.23587414674819
ESTCUBE 1               
1 39161U 13021C   26123.88300709  .00001636  00000+0  21618-3 0  9992
2 39161  97.7323 179.6212 0008997 151.2289 208.9422 14.81265045698468
ARIRANG-5 (KOMPSAT-5)   
1 39227U 13042A   26123.93809959  .00002584  00000+0  18876-3 0  9990
2 39227  97.6190 311.2581 0002354 300.5434  59.5560 15.04531681697209
GONETS-M 5              
1 39249U 13048A   26123.92217280 -.00000022  00000+0 -22955-3 0  9999
2 39249  82.4871  10.9798 0016120 313.2365  46.7368 12.42890268573388
GONETS-M 7              
1 39251U 13048C   26123.96643534 -.00000001  00000+0 -76514-4 0  9999
2 39251  82.4938  13.8507 0016966 314.2254  45.7431 12.42913182573348
FENGYUN 3C              
1 39260U 13052A   26123.94332461  .00000078  00000+0  60709-4 0  9997
2 39260  98.4958  99.8574 0015236 146.7930 213.4204 14.15744641652303
CASSIOPE                
1 39265U 13055A   26123.95785223  .00024976 -48597-6  28858-3 0  9996
2 39265  80.9127 120.2888 0302092 210.7222 147.6026 15.22153923660938
APRIZESAT 7             
1 39416U 13066A   26123.87624354  .00001693  00000+0  17297-3 0  9999
2 39416  97.7679  77.7450 0035936   0.8612 359.2662 14.91459297674622
ZACUBE-1 (TSHEPISOSAT)  
1 39417U 13066B   26123.87648492  .00005512  00000+0  43003-3 0  9997
2 39417  97.8130  85.9747 0043211  41.9670 318.4851 15.00835925674085
APRIZESAT 8             
1 39425U 13066K   26123.81493697  .00001275  00000+0  14373-3 0  9995
2 39425  97.8194  71.9140 0047466  72.4867 288.1528 14.87555984673079
CINEMA-3 (KHUSAT-2)     
1 39426U 13066L   26123.73882668  .00001993  00000+0  26419-3 0  9998
2 39426  97.8422  37.0924 0090089 357.3918   2.6811 14.78188571667888
TRITON-1                
1 39427U 13066M   26123.99254953  .00003982  00000+0  47948-3 0  9997
2 39427  97.8278  34.8080 0091005  19.3968 341.0672 14.81505757667546
DELFI-N3XT              
1 39428U 13066N   26123.73057392  .00010321  00000+0  90722-3 0  9991
2 39428  97.8357  44.0998 0075134 356.3789   3.6878 14.94557907667981
GOMX-1                  
1 39430U 13066Q   26123.92195003  .00002077  00000+0  31835-3 0  9996
2 39430  97.6508 327.1744 0127899 219.1948 139.9945 14.69290389663415
BRITE-PL1 (LEM)         
1 39431U 13066R   26123.86272528  .00001111  00000+0  22960-3 0  9995
2 39431  97.7907 239.3907 0191127 148.7980 212.4732 14.51308762657503
ICUBE-1                 
1 39432U 13066S   26123.90930120  .00014567  00000+0  58835-3 0  9999
2 39432  97.5684 109.0707 0018743 123.3597 236.9437 15.24710202677669
VELOX-PII               
1 39438U 13066Y   26123.80025822  .00003386  00000+0  32357-3 0  9996
2 39438  97.8721  75.1330 0054416 128.9323 231.6765 14.92833936671215
CUBEBUG-2 (LO-74)       
1 39440U 13066AA  26123.84679085  .00003203  00000+0  30054-3 0  9999
2 39440  97.8882  72.6589 0058051 172.9920 187.2124 14.93441761670378
NEE-02 KRYSAOR          
1 39441U 13066AB  26123.78300825  .00001801  00000+0  20250-3 0  9995
2 39441  97.8876  63.3268 0065343 214.3058 145.3930 14.86458471669600
FUNCUBE-1 (AO-73)       
1 39444U 13066AE  26123.89927706  .00008924  00000+0  56134-3 0  9996
2 39444  97.8259  94.4485 0036476 357.9834   2.1241 15.08900613672980
HINCUBE                 
1 39445U 13066AF  26123.89384354  .00008534  00000+0  55595-3 0  9990
2 39445  97.7952  91.7804 0033522   5.2587 354.8986 15.07716384672850
UWE-3                   
1 39446U 13066AG  26123.82793401  .00005346  00000+0  46152-3 0  9998
2 39446  97.8683  79.6263 0051313 106.9054 253.7802 14.96661498670947
SMDC ONE 2.4            
1 39469U 13072H   26123.86843182  .00009928  00000+0  39945-3 0  9998
2 39469 120.4875 181.1042 0138655 330.7537  28.5830 15.17359104111109
CP8 (IPEX)              
1 39471U 13072K   26123.87816906  .00008625  00000+0  43966-3 0  9997
2 39471 120.4636 130.2117 0158472 314.3936  44.4252 15.07547974108558
COSMOS 2488 (RODNIK-S 7)
1 39483U 13076A   26123.92601726  .00000062  00000+0  37880-3 0  9997
2 39483  82.4874 196.2681 0019584 188.3114 171.7644 12.42904219560395
COSMOS 2489 (RODNIK-S 8)
1 39484U 13076B   26123.90029553 -.00000078  00000+0 -63376-3 0  9996
2 39484  82.4911 197.6480 0021395 188.6025 171.4691 12.42878638560447
COSMOS 2490 (RODNIK-S 9)
1 39485U 13076C   26123.87210354 -.00000042  00000+0 -37684-3 0  9998
2 39485  82.4857 195.7526 0021173 204.5784 155.4288 12.42876026560376
AIST-1 (RS41)           
1 39492U 13078C   26123.94819436  .00002064  00000+0  18149-3 0  9991
2 39492  82.4135 313.7354 0018314  67.5071 292.8088 14.95948857668637
KAZEOSAT 1              
1 39731U 14024A   26123.96217044  .00000042  00000+0  25735-4 0  9992
2 39731  98.3218 197.5055 0001522  95.9774 264.1589 14.42061562632185
COSMOS 2496 (RODNIK-S *)
1 39761U 14028A   26123.99069062  .00000169  00000+0  11520-2 0  9992
2 39761  82.4418 136.4153 0020083 171.7436 188.3977 12.42877320542022
COSMOS 2497 (RODNIK-S *)
1 39762U 14028B   26123.96653022  .00000135  00000+0  90642-3 0  9991
2 39762  82.4468 138.1032 0020741 166.8642 193.2982 12.42893009542021
COSMOS 2498 (RODNIK-S *)
1 39763U 14028C   26123.94719846  .00000130  00000+0  86901-3 0  9995
2 39763  82.4427 136.6215 0021448 166.6971 193.4678 12.42979642542056
COSMOS 2499 (RS47)      
1 39765U 14028E   26123.90430159  .00000013  00000+0 -89000-6 0  9997
2 39765  82.4465 282.3120 0232590 105.5868 257.1037 12.82902505559348
HODOYOSHI-4             
1 40011U 14033B   26123.92301759  .00001718  00000+0  19170-3 0  9994
2 40011  97.5449 310.8856 0025141  92.1894 268.2202 14.88023288642225
UNISAT-6                
1 40012U 14033C   26123.88876571  .00003505  00000+0  38118-3 0  9998
2 40012  97.7826 277.4023 0044577 212.9603 146.8834 14.87985525639571
DEIMOS-2                
1 40013U 14033D   26123.90193970  .00001201  00000+0  11898-3 0  9994
2 40013  97.5889 359.9373 0002293  89.3974 270.7509 14.93602436631111
BUGSAT-1 (TITA)         
1 40014U 14033E   26123.92610608  .00005644  00000+0  30225-3 0  9999
2 40014  98.0409 213.9070 0027625 334.3757  25.6103 15.15141154649135
